YAOGAN-47               
1 66988U 25289A   25354.09842060  .00002520  00000+0  10946-3 0  9992
2 66988  97.5265  59.2376 0000646  91.4531 268.6780 15.23243112  1668
CZ-4B R/B               
1 66989U 25289B   25358.95818348  .00128159  70448-5  59597-3 0  9995
2 66989  97.5229  65.2030 0139625 316.5636  42.4690 15.70194994  2484
TJS-22                  
1 66990U 25290A   25358.35028095  .00000015  00000+0  00000+0 0  9997
2 66990   1.9592 285.0380 0003403 343.0864  17.5532  1.00271403   272
CZ-3B R/B               
1 66991U 25290B   25349.72468800  .00057911 -20514-6  75879-3 0  9998
2 66991  28.4636 300.4666 7240884 182.7002 168.6250  2.38388611   165
2025-292A               
1 66993U 25292A   25359.17726597  .00004463  00000+0  32168-3 0  9990
2 66993  97.6495  71.6067 0014597 227.4634 132.5361 15.04586117  2265
2025-292B               
1 66994U 25292B   25359.17682068  .00005022  00000+0  36099-3 0  9994
2 66994  97.6505  71.6089 0014381 227.8189 132.1817 15.04634865  2268
2025-292C               
1 66995U 25292C   25359.17663817  .00005823  00000+0  41742-3 0  9996
2 66995  97.6495  71.6075 0014684 228.1830 131.8142 15.04667565  2265
2025-292D               
1 66996U 25292D   25359.17627713  .00003895  00000+0  28069-3 0  9996
2 66996  97.6491  71.6071 0013793 230.7506 129.2496 15.04678098  2263
2025-292E               
1 66997U 25292E   25359.17544488  .00004613  00000+0  33082-3 0  9994
2 66997  97.6511  71.6119 0014185 231.7423 128.2528 15.04769293  2257
2025-292F               
1 66998U 25292F   25359.10732663  .00006104  00000+0  43397-3 0  9999
2 66998  97.6529  71.5516 0015304 232.8955 127.0873 15.04950396  2259
2025-292G               
1 66999U 25292G   25359.10669684  .00006137  00000+0  43558-3 0  9997
2 66999  97.6540  71.5539 0014811 234.8530 125.1309 15.05014512  2256
2025-292H               
1 67000U 25292H   25359.10658175  .00007693  00000+0  54435-3 0  9998
2 67000  97.6551  71.5562 0014777 234.7128 125.2717 15.05045256  2120
